{
    "links": {
        "self": "http://www.neowsapp.com/rest/v1/neo/3757200?api_key=iIulBulltgU6a56xZRHN4H3l9WmuAYTsLGpBGhQ2"
    },
    "id": "3757200",
    "neo_reference_id": "3757200",
    "name": "(2016 PU26)",
    "designation": "2016 PU26",
    "nasa_jpl_url": "http://ssd.jpl.nasa.gov/sbdb.cgi?sstr=3757200",
    "absolute_magnitude_h": 24.2,
    "estimated_diameter": {
        "kilometers": {
            "estimated_diameter_min": 0.0384197891,
            "estimated_diameter_max": 0.0859092601
        },
        "meters": {
            "estimated_diameter_min": 38.4197891064,
            "estimated_diameter_max": 85.9092601232
        },
        "miles": {
            "estimated_diameter_min": 0.0238729428,
            "estimated_diameter_max": 0.0533815229
        },
        "feet": {
            "estimated_diameter_min": 126.0491808919,
            "estimated_diameter_max": 281.8545369825
        }
    },
    "is_potentially_hazardous_asteroid": false,
    "close_approach_data": [
        {
            "close_approach_date": "2016-07-19",
            "close_approach_date_full": "2016-Jul-19 02:20",
            "epoch_date_close_approach": 1468894800000,
            "relative_velocity": {
                "kilometers_per_second": "5.7106106866",
                "kilometers_per_hour": "20558.1984718645",
                "miles_per_hour": "12774.0650449205"
            },
            "miss_distance": {
                "astronomical": "0.2020075314",
                "lunar": "78.5809297146",
                "kilometers": "30219896.421398118",
                "miles": "18777772.8993573084"
            },
            "orbiting_body": "Earth"
        }
    ],
    "orbital_data": {
        "orbit_id": "2",
        "orbit_determination_date": "2017-04-06 08:24:36",
        "first_observation_date": "2016-08-08",
        "last_observation_date": "2016-08-10",
        "data_arc_in_days": 2,
        "observations_used": 9,
        "orbit_uncertainty": "9",
        "minimum_orbit_intersection": ".198646",
        "jupiter_tisserand_invariant": "3.645",
        "epoch_osculation": "2457609.5",
        "eccentricity": ".4170117470138542",
        "semi_major_axis": "2.069539920826238",
        "inclination": "9.45282095689873",
        "ascending_node_longitude": "131.898021269692",
        "orbital_period": "1087.449603408439",
        "perihelion_distance": "1.206517462927575",
        "perihelion_argument": "157.7452846427118",
        "aphelion_distance": "2.932562378724901",
        "perihelion_time": "2457578.867756669515",
        "mean_anomaly": "10.14079876843056",
        "mean_motion": ".3310498241680689",
        "equinox": "J2000",
        "orbit_class": {
            "orbit_class_type": "AMO",
            "orbit_class_description": "Near-Earth asteroid orbits similar to that of 1221 Amor",
            "orbit_class_range": "1.017 AU < q (perihelion) < 1.3 AU"
        }
    },
    "is_sentry_object": false
}